IRIDIUM 136             
1 42962U 17061H   23313.37840499  .00000710  00000+0  24658-3 0  9999
2 42962  86.3981  62.5938 0001931  89.7807 270.3610 14.34214529318552
